COMMENT,ORIGINATOR,NORAD_CAT_ID,OBJECT_NAME,OBJECT_TYPE,CLASSIFICATION_TYPE,INTLDES,EPOCH,EPOCH_MICROSECONDS,MEAN_MOTION,ECCENTRICITY,INCLINATION,RA_OF_ASC_NODE,ARG_OF_PERICENTER,MEAN_ANOMALY,EPHEMERIS_TYPE,ELEMENT_SET_NO,REV_AT_EPOCH,BSTAR,MEAN_MOTION_DOT,MEAN_MOTION_DDOT,FILE,TLE_LINE0,TLE_LINE1,TLE_LINE2,OBJECT_ID,OBJECT_NUMBER,SEMIMAJOR_AXIS,PERIOD,APOGEE,PERIGEE,DECAYED
"GENERATED VIA SPACETRACK.ORG API","18 SPCS","12345","COSMOS 1174 DEB","DEBRIS","U","80030T","1990-11-14 00:35:39","362496","14.75377513","0.03625","66.044","279.301","210.992","146.9273","0","999","99262","0.0023112","0.00047307","0","131174","0 COSMOS 1174 DEB","1 12345U 80030  T 90318.02476114  .00047307 +00000-0 +23112-2 0  9994","2 12345 066.0440 279.3010 0362500 210.9920 146.9273 14.75377513992621","1980-030T","12345","7022.095","97.602","898.511","389.409","1"
"GENERATED VIA SPACETRACK.ORG API","18 SPCS","12345","COSMOS 1174 DEB","DEBRIS","U","80030T","1990-11-13 21:20:25","525248","14.7536612","0.0362492","66.0439","279.6934","211.099","146.8186","0","999","99260","0.0023199","0.00047606","0","34725","0 COSMOS 1174 DEB","1 12345U 80030  T 90317.88918432  .00047606 +00000-0 +23199-2 0  9998","2 12345 066.0439 279.6934 0362492 211.0990 146.8186 14.75366120992608","1980-030T","12345","7022.131","97.603","898.542","389.449","1"
"GENERATED VIA SPACETRACK.ORG API","18 SPCS","12345","COSMOS 1174 DEB","DEBRIS","U","80030T","1990-11-12 22:33:45","909215","14.75280068","0.0363123","66.0425","282.4372","211.7043","146.1762","0","999","99246","0.0023435","0.00048146","0","34725","0 COSMOS 1174 DEB","1 12345U 80030  T 90316.94011469  .00048146 +00000-0 +23435-2 0  9991","2 12345 066.0425 282.4372 0363123 211.7043 146.1762 14.75280068992462","1980-030T","12345","7022.404","97.609","899.268","389.269","1"
"GENERATED VIA SPACETRACK.ORG API","18 SPCS","12345","COSMOS 1174 DEB","DEBRIS","U","80030T","1990-11-11 23:47:01","928255","14.75186311","0.0363498","66.0455","285.188","212.349","145.4961","0","999","99232","0.0023245","0.00047561","0","131174","0 COSMOS 1174 DEB","1 12345U 80030  T 90315.99099454  .00047561 +00000-0 +23245-2 0  9994","2 12345 066.0455 285.1880 0363498 212.3490 145.4961 14.75186311992321","1980-030T","12345","7022.701","97.615","899.840","389.293","1"
"GENERATED VIA SPACETRACK.ORG API","18 SPCS","12345","COSMOS 1174 DEB","DEBRIS","U","80030T","1990-11-11 22:09:25","336224","14.75178696","0.0363296","66.0458","285.3843","212.3926","145.5005","0","999","99231","0.0023204","0.00047551","0","34725","0 COSMOS 1174 DEB","1 12345U 80030  T 90315.92320991  .00047551 +00000-0 +23204-2 0  9994","2 12345 066.0458 285.3843 0363296 212.3926 145.5005 14.75178696992311","1980-030T","12345","7022.726","97.615","899.723","389.458","1"
"GENERATED VIA SPACETRACK.ORG API","18 SPCS","12345","COSMOS 1174 DEB","DEBRIS","U","80030T","1990-11-11 07:30:45","489599","14.75112012","0.0363356","66.0496","287.153","212.6885","145.1574","0","999","99222","0.002254","0.00046088","0","34725","0 COSMOS 1174 DEB","1 12345U 80030  T 90315.31302650  .00046088 +00000-0 +22540-2 0  9995","2 12345 066.0496 287.1530 0363356 212.6885 145.1574 14.75112012992227","1980-030T","12345","7022.937","97.620","899.985","389.620","1"
"GENERATED VIA SPACETRACK.ORG API","18 SPCS","12345","COSMOS 1174 DEB","DEBRIS","U","80030T","1990-11-11 01:00:13","922783","14.75080861","0.0363438","66.0483","287.9348","212.9917","144.8318","0","999","99218","0.0022073","0.00045099","0","34725","0 COSMOS 1174 DEB","1 12345U 80030  T 90315.04182781  .00045099 +00000-0 +22073-2 0  9998","2 12345 066.0483 287.9348 0363438 212.9917 144.8318 14.75080861992181","1980-030T","12345","7023.036","97.622","900.145","389.657","1"
"GENERATED VIA SPACETRACK.ORG API","18 SPCS","12345","COSMOS 1174 DEB","DEBRIS","U","80030T","1990-11-10 21:45:01","34208","14.75034087","0.0364688","66.0445","288.3181","213.0584","144.843","0","999","99216","0.0018464","0.0003791","0","34725","0 COSMOS 1174 DEB","1 12345U 80030  T 90314.90626197  .00037910 +00000-0 +18464-2 0  9998","2 12345 066.0445 288.3181 0364688 213.0584 144.8430 14.75034087992161","1980-030T","12345","7023.185","97.625","901.177","388.922","1"
"GENERATED VIA SPACETRACK.ORG API","18 SPCS","12345","COSMOS 1174 DEB","DEBRIS","U","80030T","1990-11-10 00:35:42","34847","14.74953392","0.0364248","66.0487","290.8895","213.5529","144.2384","0","999","99203","0.0017778","0.00036281","0","34725","0 COSMOS 1174 DEB","1 12345U 80030  T 90314.02479207  .00036281 +00000-0 +17778-2 0  9996","2 12345 066.0487 290.8895 0364248 213.5529 144.2384 14.74953392992039","1980-030T","12345","7023.441","97.630","901.133","389.478","1"
"GENERATED VIA SPACETRACK.ORG API","18 SPCS","12345","COSMOS 1174 DEB","DEBRIS","U","80030T","1990-11-09 08:19:15","750047","14.74896223","0.0364301","66.0475","292.8476","213.8986","143.8517","0","999","99193","0.0017363","0.00035366","0","34725","0 COSMOS 1174 DEB","1 12345U 80030  T 90313.34671007  .00035366 +00000-0 +17363-2 0  9995","2 12345 066.0475 292.8476 0364301 213.8986 143.8517 14.74896223991933","1980-030T","12345","7023.622","97.634","901.358","389.616","1"
"GENERATED VIA SPACETRACK.ORG API","18 SPCS","12345","COSMOS 1174 DEB","DEBRIS","U","80030T","1990-11-09 00:11:01","699583","14.74869184","0.0364524","66.0464","293.8275","214.2228","143.5007","0","999","99188","0.0017192","0.00034971","0","131174","0 COSMOS 1174 DEB","1 12345U 80030  T 90313.00765856  .00034971 +00000-0 +17192-2 0  9995","2 12345 066.0464 293.8275 0364524 214.2228 143.5007 14.74869184991881","1980-030T","12345","7023.708","97.636","901.604","389.542","1"
"GENERATED VIA SPACETRACK.ORG API","18 SPCS","12345","COSMOS 1174 DEB","DEBRIS","U","80030T","1990-11-07 09:07:22","749888","14.7475295","0.036472","66.0455","298.5363","215.2683","142.3789","0","999","99164","0.0017054","0.00034652","0","34725","0 COSMOS 1174 DEB","1 12345U 80030  T 90311.38012442  .00034652 +00000-0 +17054-2 0  9993","2 12345 066.0455 298.5363 0364720 215.2683 142.3789 14.74752950991645","1980-030T","12345","7024.077","97.643","902.124","389.760","1"
"GENERATED VIA SPACETRACK.ORG API","18 SPCS","12345","COSMOS 1174 DEB","DEBRIS","U","80030T","1990-11-06 00:34:09","742368","14.74658087","0.0365256","66.0455","302.4589","216.1038","141.3501","0","999","99144","0.0016986","0.00034517","0","34725","0 COSMOS 1174 DEB","1 12345U 80030  T 90310.02372387  .00034517 +00000-0 +16986-2 0  9993","2 12345 066.0455 302.4589 0365256 216.1038 141.3501 14.74658087991444","1980-030T","12345","7024.378","97.650","902.813","389.674","1"
"GENERATED VIA SPACETRACK.ORG API","18 SPCS","12345","COSMOS 1174 DEB","DEBRIS","U","80030T","1990-11-05 01:46:52","515551","14.74619185","0.0361955","66.0432","305.2153","216.992","140.5298","0","999","99130","0.0020209","0.00040121","0","131174","0 COSMOS 1174 DEB","1 12345U 80030  T 90309.07421893  .00040121 +00000-0 +20209-2 0  9994","2 12345 066.0432 305.2153 0361955 216.9920 140.5298 14.74619185991302","1980-030T","12345","7024.502","97.652","900.622","392.112","1"
"GENERATED VIA SPACETRACK.ORG API","18 SPCS","12345","COSMOS 1174 DEB","DEBRIS","U","80030T","1990-11-04 01:21:50","918112","14.74547926","0.0362818","66.0466","308.1611","217.4867","139.9918","0","999","99115","0.0020664","0.00041149","0","131174","0 COSMOS 1174 DEB","1 12345U 80030  T 90308.05683933  .00041149 +00000-0 +20664-2 0  9992","2 12345 066.0466 308.1611 0362818 217.4867 139.9918 14.74547926991152","1980-030T","12345","7024.728","97.657","901.463","391.723","1"
"GENERATED VIA SPACETRACK.ORG API","18 SPCS","12345","COSMOS 1174 DEB","DEBRIS","U","80030T","1990-11-03 10:42:47","365056","14.74512906","0.0364514","66.048","309.9285","217.8791","139.5928","0","999","99106","0.0021263","0.00042866","0","34725","0 COSMOS 1174 DEB","1 12345U 80030  T 90307.44638154  .00042866 +00000-0 +21263-2 0  9992","2 12345 066.0480 309.9285 0364514 217.8791 139.5928 14.74512906991066","1980-030T","12345","7024.839","97.659","902.770","390.639","1"
"GENERATED VIA SPACETRACK.ORG API","18 SPCS","12345","COSMOS 1174 DEB","DEBRIS","U","80030T","1990-11-03 02:34:24","900096","14.74486725","0.0364945","66.0466","310.9039","217.9819","139.4673","0","999","99101","0.0021376","0.00043061","0","131174","0 COSMOS 1174 DEB","1 12345U 80030  T 90307.10723264  .00043061 +00000-0 +21376-2 0  9995","2 12345 066.0466 310.9039 0364945 217.9819 139.4673 14.74486725991019","1980-030T","12345","7024.923","97.661","903.159","390.417","1"
"GENERATED VIA SPACETRACK.ORG API","18 SPCS","12345","COSMOS 1174 DEB","DEBRIS","U","80030T","1990-11-02 11:55:19","835904","14.74444737","0.0365966","66.0475","312.6671","218.4462","138.9965","0","999","99092","0.0021859","0.00044385","0","34725","0 COSMOS 1174 DEB","1 12345U 80030  T 90306.49675736  .00044385 +00000-0 +21859-2 0  9992","2 12345 066.0475 312.6671 0365966 218.4462 138.9965 14.74444737990928","1980-030T","12345","7025.056","97.664","904.014","389.828","1"
"GENERATED VIA SPACETRACK.ORG API","18 SPCS","12345","COSMOS 1174 DEB","DEBRIS","U","80030T","1990-11-02 07:02:16","571904","14.74434842","0.0366818","66.0525","313.2574","218.4287","138.9665","0","999","99089","0.0022157","0.000451","0","131174","0 COSMOS 1174 DEB","1 12345U 80030  T 90306.29324736  .00045100 +00000-0 +22157-2 0  9999","2 12345 066.0525 313.2574 0366818 218.4287 138.9665 14.74434842990894","1980-030T","12345","7025.087","97.665","904.645","389.260","1"
"GENERATED VIA SPACETRACK.ORG API","18 SPCS","12345","COSMOS 1174 DEB","DEBRIS","U","80030T","1990-11-01 01:44:01","437504","14.74331566","0.0367053","66.0481","316.7827","219.1655","138.2012","0","999","99071","0.0022716","0.00046146","0","131174","0 COSMOS 1174 DEB","1 12345U 80030  T 90305.07223886  .00046146 +00000-0 +22716-2 0  9990","2 12345 066.0481 316.7827 0367053 219.1655 138.2012 14.74331566990712","1980-030T","12345","7025.415","97.671","905.150","389.410","1"
